[{"OBJECT_NAME":"GSAT0218 (GALILEO 22)","OBJECT_ID":"2017-079D","EPOCH":"2026-04-25T22:55:31.247328","MEAN_MOTION":1.70474761,"ECCENTRICITY":0.00031835,"INCLINATION":55.0879,"RA_OF_ASC_NODE":222.9388,"ARG_OF_PERICENTER":277.2874,"MEAN_ANOMALY":82.6679,"EPHEMERIS_TYPE":0,"CLASSIFICATION_TYPE":"U","NORAD_CAT_ID":43058,"ELEMENT_SET_NO":999,"REV_AT_EPOCH":5212,"BSTAR":0,"MEAN_MOTION_DOT":-3.9e-7,"MEAN_MOTION_DDOT":0},{"OBJECT_NAME":"GOES 17","OBJECT_ID":"2018-022A","EPOCH":"2026-04-25T20:49:38.771040","MEAN_MOTION":1.00272049,"ECCENTRICITY":6.724e-5,"INCLINATION":0.8053,"RA_OF_ASC_NODE":86.4106,"ARG_OF_PERICENTER":269.383,"MEAN_ANOMALY":81.0047,"EPHEMERIS_TYPE":0,"CLASSIFICATION_TYPE":"U","NORAD_CAT_ID":43226,"ELEMENT_SET_NO":999,"REV_AT_EPOCH":2989,"BSTAR":0,"MEAN_MOTION_DOT":-1.95e-6,"MEAN_MOTION_DDOT":0},{"OBJECT_NAME":"GSAT0221 (GALILEO 25)","OBJECT_ID":"2018-060A","EPOCH":"2026-04-24T02:22:56.871840","MEAN_MOTION":1.70475641,"ECCENTRICITY":0.00038477,"INCLINATION":57.1855,"RA_OF_ASC_NODE":343.2419,"ARG_OF_PERICENTER":321.5085,"MEAN_ANOMALY":38.5036,"EPHEMERIS_TYPE":0,"CLASSIFICATION_TYPE":"U","NORAD_CAT_ID":43564,"ELEMENT_SET_NO":999,"REV_AT_EPOCH":4824,"BSTAR":0,"MEAN_MOTION_DOT":-8.8e-7,"MEAN_MOTION_DDOT":0},{"OBJECT_NAME":"GSAT0222 (GALILEO 26)","OBJECT_ID":"2018-060B","EPOCH":"2026-04-25T11:48:29.038464","MEAN_MOTION":1.70475419,"ECCENTRICITY":0.00024131,"INCLINATION":57.1892,"RA_OF_ASC_NODE":343.2075,"ARG_OF_PERICENTER":289.5902,"MEAN_ANOMALY":70.4237,"EPHEMERIS_TYPE":0,"CLASSIFICATION_TYPE":"U","NORAD_CAT_ID":43565,"ELEMENT_SET_NO":999,"REV_AT_EPOCH":4831,"BSTAR":0,"MEAN_MOTION_DOT":-9.0e-7,"MEAN_MOTION_DDOT":0},{"OBJECT_NAME":"GSAT0219 (GALILEO 23)","OBJECT_ID":"2018-060C","EPOCH":"2026-04-23T22:52:39.159264","MEAN_MOTION":1.70475588,"ECCENTRICITY":0.00033517,"INCLINATION":57.1884,"RA_OF_ASC_NODE":343.2507,"ARG_OF_PERICENTER":340.2281,"MEAN_ANOMALY":19.7984,"EPHEMERIS_TYPE":0,"CLASSIFICATION_TYPE":"U","NORAD_CAT_ID":43566,"ELEMENT_SET_NO":999,"REV_AT_EPOCH":4826,"BSTAR":0,"MEAN_MOTION_DOT":-8.8e-7,"MEAN_MOTION_DDOT":0},{"OBJECT_NAME":"GSAT0220 (GALILEO 24)","OBJECT_ID":"2018-060D","EPOCH":"2026-04-24T18:15:44.704512","MEAN_MOTION":1.70475503,"ECCENTRICITY":0.00036445,"INCLINATION":57.1842,"RA_OF_ASC_NODE":343.2275,"ARG_OF_PERICENTER":44.9018,"MEAN_ANOMALY":315.1672,"EPHEMERIS_TYPE":0,"CLASSIFICATION_TYPE":"U","NORAD_CAT_ID":43567,"ELEMENT_SET_NO":999,"REV_AT_EPOCH":4826,"BSTAR":0,"MEAN_MOTION_DOT":-8.9e-7,"MEAN_MOTION_DDOT":0},{"OBJECT_NAME":"BEIDOU-3 M13","OBJECT_ID":"2018-072A","EPOCH":"2026-04-25T09:03:09.640224","MEAN_MOTION":1.86230995,"ECCENTRICITY":0.00088987,"INCLINATION":56.5807,"RA_OF_ASC_NODE":64.4013,"ARG_OF_PERICENTER":317.9002,"MEAN_ANOMALY":42.0054,"EPHEMERIS_TYPE":0,"CLASSIFICATION_TYPE":"U","NORAD_CAT_ID":43622,"ELEMENT_SET_NO":999,"REV_AT_EPOCH":5167,"BSTAR":0,"MEAN_MOTION_DOT":-2.9e-7,"MEAN_MOTION_DDOT":0},{"OBJECT_NAME":"BEIDOU-3 M14","OBJECT_ID":"2018-072B","EPOCH":"2026-04-24T16:56:11.825088","MEAN_MOTION":1.86231012,"ECCENTRICITY":0.00069215,"INCLINATION":56.5822,"RA_OF_ASC_NODE":64.4176,"ARG_OF_PERICENTER":342.3518,"MEAN_ANOMALY":17.5993,"EPHEMERIS_TYPE":0,"CLASSIFICATION_TYPE":"U","NORAD_CAT_ID":43623,"ELEMENT_SET_NO":999,"REV_AT_EPOCH":5165,"BSTAR":0,"MEAN_MOTION_DOT":-2.4e-7,"MEAN_MOTION_DDOT":0},{"OBJECT_NAME":"GPS BIII-1","OBJECT_ID":"2018-109A","EPOCH":"2026-04-25T09:41:28.643136","MEAN_MOTION":2.00559068,"ECCENTRICITY":0.00378817,"INCLINATION":55.6508,"RA_OF_ASC_NODE":94.2672,"ARG_OF_PERICENTER":198.8725,"MEAN_ANOMALY":333.2065,"EPHEMERIS_TYPE":0,"CLASSIFICATION_TYPE":"U","NORAD_CAT_ID":43873,"ELEMENT_SET_NO":999,"REV_AT_EPOCH":5401,"BSTAR":0,"MEAN_MOTION_DOT":4.3e-7,"MEAN_MOTION_DDOT":0},{"OBJECT_NAME":"METEOR-M2 2","OBJECT_ID":"2019-038A","EPOCH":"2026-04-25T23:32:59.912736","MEAN_MOTION":14.2435055,"ECCENTRICITY":0.0001733,"INCLINATION":98.9135,"RA_OF_ASC_NODE":102.5033,"ARG_OF_PERICENTER":128.8442,"MEAN_ANOMALY":231.2892,"EPHEMERIS_TYPE":0,"CLASSIFICATION_TYPE":"U","NORAD_CAT_ID":44387,"ELEMENT_SET_NO":999,"REV_AT_EPOCH":35386,"BSTAR":9.901921e-6,"MEAN_MOTION_DOT":-2.3e-7,"MEAN_MOTION_DDOT":0},{"OBJECT_NAME":"GPS BIII-2","OBJECT_ID":"2019-056A","EPOCH":"2026-04-25T00:58:28.589088","MEAN_MOTION":2.00569009,"ECCENTRICITY":0.00595358,"INCLINATION":55.6607,"RA_OF_ASC_NODE":333.2545,"ARG_OF_PERICENTER":197.4739,"MEAN_ANOMALY":334.4796,"EPHEMERIS_TYPE":0,"CLASSIFICATION_TYPE":"U","NORAD_CAT_ID":44506,"ELEMENT_SET_NO":999,"REV_AT_EPOCH":4900,"BSTAR":0,"MEAN_MOTION_DOT":-7.8e-7,"MEAN_MOTION_DDOT":0},{"OBJECT_NAME":"BEIDOU-3 M24","OBJECT_ID":"2019-061A","EPOCH":"2026-04-22T09:34:48.654336","MEAN_MOTION":1.86229,"ECCENTRICITY":0.00080076,"INCLINATION":54.3942,"RA_OF_ASC_NODE":184.6097,"ARG_OF_PERICENTER":7.0098,"MEAN_ANOMALY":353.0664,"EPHEMERIS_TYPE":0,"CLASSIFICATION_TYPE":"U","NORAD_CAT_ID":44542,"ELEMENT_SET_NO":999,"REV_AT_EPOCH":4475,"BSTAR":0,"MEAN_MOTION_DOT":3.0e-8,"MEAN_MOTION_DDOT":0},{"OBJECT_NAME":"BEIDOU-3 M23","OBJECT_ID":"2019-061B","EPOCH":"2026-04-25T05:39:02.836800","MEAN_MOTION":1.86227167,"ECCENTRICITY":0.00050381,"INCLINATION":54.3928,"RA_OF_ASC_NODE":184.4822,"ARG_OF_PERICENTER":348.293,"MEAN_ANOMALY":25.2802,"EPHEMERIS_TYPE":0,"CLASSIFICATION_TYPE":"U","NORAD_CAT_ID":44543,"ELEMENT_SET_NO":999,"REV_AT_EPOCH":4481,"BSTAR":0,"MEAN_MOTION_DOT":-1.1e-7,"MEAN_MOTION_DDOT":0},{"OBJECT_NAME":"BEIDOU-3 M22","OBJECT_ID":"2019-078A","EPOCH":"2026-04-24T22:09:13.381920","MEAN_MOTION":1.86226959,"ECCENTRICITY":0.00073196,"INCLINATION":53.9851,"RA_OF_ASC_NODE":301.7007,"ARG_OF_PERICENTER":45.7814,"MEAN_ANOMALY":314.2766,"EPHEMERIS_TYPE":0,"CLASSIFICATION_TYPE":"U","NORAD_CAT_ID":44793,"ELEMENT_SET_NO":999,"REV_AT_EPOCH":4365,"BSTAR":0,"MEAN_MOTION_DOT":-4.8e-7,"MEAN_MOTION_DDOT":0},{"OBJECT_NAME":"BEIDOU-3 M21","OBJECT_ID":"2019-078B","EPOCH":"2026-04-25T14:24:08.170848","MEAN_MOTION":1.86227485,"ECCENTRICITY":0.00051771,"INCLINATION":53.958,"RA_OF_ASC_NODE":301.6395,"ARG_OF_PERICENTER":43.1798,"MEAN_ANOMALY":316.8583,"EPHEMERIS_TYPE":0,"CLASSIFICATION_TYPE":"U","NORAD_CAT_ID":44794,"ELEMENT_SET_NO":999,"REV_AT_EPOCH":4367,"BSTAR":0,"MEAN_MOTION_DOT":-5.2e-7,"MEAN_MOTION_DDOT":0},{"OBJECT_NAME":"ELEKTRO-L 3","OBJECT_ID":"2019-095A","EPOCH":"2026-04-25T23:44:51.644832","MEAN_MOTION":1.00271203,"ECCENTRICITY":0.0001058,"INCLINATION":0.1237,"RA_OF_ASC_NODE":75.6117,"ARG_OF_PERICENTER":295.5808,"MEAN_ANOMALY":274.9605,"EPHEMERIS_TYPE":0,"CLASSIFICATION_TYPE":"U","NORAD_CAT_ID":44903,"ELEMENT_SET_NO":999,"REV_AT_EPOCH":2318,"BSTAR":0,"MEAN_MOTION_DOT":-1.09e-6,"MEAN_MOTION_DDOT":0},{"OBJECT_NAME":"GPS BIII-3","OBJECT_ID":"2020-041A","EPOCH":"2026-04-25T02:18:27.430848","MEAN_MOTION":2.00559675,"ECCENTRICITY":0.00621638,"INCLINATION":56.6375,"RA_OF_ASC_NODE":31.0034,"ARG_OF_PERICENTER":205.0676,"MEAN_ANOMALY":307.4587,"EPHEMERIS_TYPE":0,"CLASSIFICATION_TYPE":"U","NORAD_CAT_ID":45854,"ELEMENT_SET_NO":999,"REV_AT_EPOCH":4297,"BSTAR":0,"MEAN_MOTION_DOT":-9.5e-7,"MEAN_MOTION_DDOT":0}]
